SCD 1                   
1 22490U 93009B   26060.36810177  .00000492  00000+0  83689-4 0  9997
2 22490  24.9679 153.2667 0042201  76.9484 340.9035 14.46061703745498
TECHSAT 1B (GO-32)      
1 25397U 98043D   26060.45126706  .00000108  00000+0  66779-4 0  9992
2 25397  99.0017  50.5226 0001821 132.1214 228.0119 14.24403395435998
SCD 2                   
1 25504U 98060A   26060.05197903  .00000492  00000+0  86519-4 0  9994
2 25504  24.9965  19.0055 0016965  60.9894  14.3592 14.45476998444661
DLR-TUBSAT              
1 25757U 99029B   26060.54782233  .00000172  00000+0  54194-4 0  9999
2 25757  98.6655  52.5353 0013459 321.3900  38.6331 14.52393705417623
TERRA                   
1 25994U 99068A   26060.44047917  .00000536  00000+0  11830-3 0  9990
2 25994  97.9612 114.1897 0002136 172.0958 312.8190 14.61004514393870
MAROC-TUBSAT            
1 27004U 01056D   26060.44695835 -.00000011  00000+0  39973-4 0  9990
2 27004  99.7998 235.2950 0020483  60.1211 354.0265 13.70257526211434
AQUA                    
1 27424U 02022A   26060.48112219  .00001245  00000+0  25846-3 0  9996
2 27424  98.4159  27.6975 0000725  52.8383  58.4881 14.61953163267532
IRS-P6 (RESOURCESAT-1)  
1 28051U 03046A   26060.53014642  .00000548  00000+0  19781-3 0  9993
2 28051  98.2069 102.2465 0063196 306.0791 188.3161 14.36112345165070
SHIYAN-1 (SY-1)         
1 28220U 04012A   26060.17391585  .00016431  00000+0  55499-3 0  9993
2 28220  97.8794 131.4351 0006580  51.3100 308.8728 15.30734349194556
AURA                    
1 28376U 04026A   26060.47937139  .00001236  00000+0  26105-3 0  9993
2 28376  98.3296  16.1299 0001036  76.3553 283.7763 14.61125701150484
IRS-P5 (CARTOSAT-1)     
1 28649U 05017A   26060.49274130  .00002080  00000+0  21721-3 0  9991
2 28649  97.5426  88.4055 0002539  78.5695 281.5809 14.90730708127779
SINAH 1                 
1 28893U 05043D   26060.48511318  .00000571  00000+0  11812-3 0  9995
2 28893  98.2670 194.2851 0013333 251.9669 108.0080 14.64061986 84762
RESURS-DK 1             
1 29228U 06021A   26060.00528229  .00002851  00000+0  16864-3 0  9997
2 29228  69.9304 259.4889 0002575 166.8523 193.2711 15.12677600 86217
ARIRANG-2 (KOMPSAT-2)   
1 29268U 06031A   26060.55655703  .00000168  00000+0  39968-4 0  9990
2 29268  97.8297 250.2024 0015628  57.9287   9.7152 14.64579009 45723
LAPAN-TUBSAT            
1 29709U 07001A   26060.50925978  .00000357  00000+0  47580-4 0  9996
2 29709  98.1323  57.3291 0012152 169.6451 190.5016 14.85814709 35169
HAIYANG-1B              
1 31113U 07010A   26060.46678979  .00000134  00000+0  66837-4 0  9998
2 31113  98.3416  46.5367 0013890 155.9918 204.1916 14.30996346985226
COSMO-SKYMED 1          
1 31598U 07023A   26060.50705303  .00003616  00000+0  32391-3 0  9991
2 31598  97.8866 251.4743 0000902  83.7550 276.3773 14.96459355 13681
TERRASAR-X              
1 31698U 07026A   26059.57492105  .00001356  00000+0  67736-4 0  9994
2 31698  97.4460  68.8273 0001834  80.2105 279.9336 15.19152703 36737
WORLDVIEW-1 (WV-1)      
1 32060U 07041A   26060.30025717  .00009656  00000+0  39718-3 0  9998
2 32060  97.3821 181.6028 0002709 158.2972 201.8380 15.24353586 26441
YAOGAN-3                
1 32289U 07055A   26060.51794546  .00004771  00000+0  49642-3 0  9992
2 32289  97.8291  91.4285 0001942  84.6572 275.4867 14.90318988989825
COSMO-SKYMED 2          
1 32376U 07059A   26060.48174816  .00000685  00000+0  92613-4 0  9998
2 32376  97.8862 245.6368 0001339  82.8484 277.2882 14.82153041986049
RADARSAT-2              
1 32382U 07061A   26060.56253331  .00000258  00000+0  11712-3 0  9993
2 32382  98.5815  69.0183 0001182  83.7050 276.4267 14.29981458950579
CARTOSAT-2A             
1 32783U 08021A   26060.55553398  .00000835  00000+0  11943-3 0  9997
2 32783  97.7802 112.8709 0013229  99.8271 260.4435 14.79081571962890
HUANJING 1A (HJ-1A)     
1 33320U 08041A   26060.54239008  .00002051  00000+0  25359-3 0  9993
2 33320  97.6619  50.6047 0020229 128.3729 231.9307 14.83688425942447
HUANJING 1B (HJ-1B)     
1 33321U 08041B   26060.53229609  .00001421  00000+0  17892-3 0  9992
2 33321  97.6467  54.0804 0036394 174.3353 185.8280 14.83077315942450
GEOEYE 1                
1 33331U 08042A   26060.42095105  .00000651  00000+0  13107-3 0  9993
2 33331  98.1223 135.7150 0004470  49.9976 310.1619 14.64754955934378
THEOS                   
1 33396U 08049A   26060.52313711  .00000073  00000+0  54032-4 0  9999
2 33396  98.5728 121.2391 0001058  86.0477 274.0821 14.20114908902689
COSMO-SKYMED 3          
1 33412U 08054A   26060.54829855  .00004571  00000+0  31603-3 0  9992
2 33412  97.8425 277.2939 0014880 271.8980  88.0542 15.06154047940738
YAOGAN-4                
1 33446U 08061A   26060.35324824  .00001592  00000+0  20238-3 0  9994
2 33446  97.9241 354.7226 0015755  64.3283 295.9555 14.82947234929680
GOSAT (IBUKI)           
1 33492U 09002A   26060.27439626  .00000257  00000+0  53763-4 0  9996
2 33492  98.0763 172.7846 0001411  88.6658 271.4708 14.67543304915639
DEIMOS-1                
1 35681U 09041A   26060.47262544  .00000874  00000+0  13671-3 0  9994
2 35681  97.7237 222.4560 0001884 131.5167 228.6205 14.75099006891000
