OBJECT_NAME,OBJECT_ID,EPOCH,MEAN_MOTION,ECCENTRICITY,INCLINATION,RA_OF_ASC_NODE,ARG_OF_PERICENTER,MEAN_ANOMALY,EPHEMERIS_TYPE,CLASSIFICATION_TYPE,NORAD_CAT_ID,ELEMENT_SET_NO,REV_AT_EPOCH,BSTAR,MEAN_MOTION_DOT,MEAN_MOTION_DDOT
SCD 1,1993-009B,2026-03-01T08:50:03.992928,14.46061703,.0042201,24.9679,153.2667,76.9484,340.9035,0,U,22490,999,74549,.83689E-4,.492E-5,0
TECHSAT 1B (GO-32),1998-043D,2026-03-01T10:49:49.473984,14.24403395,.0001821,99.0017,50.5226,132.1214,228.0119,0,U,25397,999,43599,.66779E-4,.108E-5,0
SCD 2,1998-060A,2026-03-01T01:14:50.988192,14.45476998,.00169652,24.9965,19.0055,60.9894,14.3592,0,U,25504,999,44466,.86519037E-4,.492E-5,0
DLR-TUBSAT,1999-029B,2026-03-01T13:08:51.849312,14.52393705,.0013459,98.6655,52.5353,321.3900,38.6331,0,U,25757,999,41762,.54194E-4,.172E-5,0
TERRA,1999-068A,2026-03-01T10:34:17.400288,14.61004514,.0002136,97.9612,114.1897,172.0958,312.8190,0,U,25994,999,39387,.1183E-3,.536E-5,0
MAROC-TUBSAT,2001-056D,2026-03-01T10:43:37.201440,13.70257526,.0020483,99.7998,235.2950,60.1211,354.0265,0,U,27004,999,21143,.39973E-4,-.11E-6,0
AQUA,2002-022A,2026-03-01T11:32:48.957216,14.61953163,.0000725,98.4159,27.6975,52.8383,58.4881,0,U,27424,999,26753,.25846E-3,.1245E-4,0
IRS-P6 (RESOURCESAT-1),2003-046A,2026-03-01T12:43:24.650688,14.36112345,.0063196,98.2069,102.2465,306.0791,188.3161,0,U,28051,999,16507,.19781E-3,.548E-5,0
SHIYAN-1 (SY-1),2004-012A,2026-03-01T04:10:26.329440,15.30734349,.00065809,97.8794,131.4351,51.3100,308.8728,0,U,28220,999,19455,.5549886E-3,.16431E-3,0
AURA,2004-026A,2026-03-01T11:30:17.688096,14.61125701,.0001036,98.3296,16.1299,76.3553,283.7763,0,U,28376,999,15048,.26105E-3,.1236E-4,0
IRS-P5 (CARTOSAT-1),2005-017A,2026-03-01T11:49:32.848320,14.90730708,.0002539,97.5426,88.4055,78.5695,281.5809,0,U,28649,999,12777,.21721E-3,.208E-4,0
SINAH 1,2005-043D,2026-03-01T11:38:33.778752,14.64061986,.0013333,98.2670,194.2851,251.9669,108.0080,0,U,28893,999,8476,.11812E-3,.571E-5,0
RESURS-DK 1,2006-021A,2026-03-01T00:07:36.389856,15.12677600,.0002575,69.9304,259.4889,166.8523,193.2711,0,U,29228,999,8621,.16864174E-3,.2851E-4,0
ARIRANG-2 (KOMPSAT-2),2006-031A,2026-03-01T13:21:26.527392,14.64579009,.0015628,97.8297,250.2024,57.9287,9.7152,0,U,29268,999,4572,.39968E-4,.168E-5,0
LAPAN-TUBSAT,2007-001A,2026-03-01T12:13:20.044992,14.85814709,.0012152,98.1323,57.3291,169.6451,190.5016,0,U,29709,999,3516,.4758E-4,.357E-5,0
HAIYANG-1B,2007-010A,2026-03-01T11:12:10.637856,14.30996346,.001389,98.3416,46.5367,155.9918,204.1916,0,U,31113,999,98522,.66837E-4,.134E-5,0
COSMO-SKYMED 1,2007-023A,2026-03-01T12:10:09.381792,14.96459355,.0000902,97.8866,251.4743,83.7550,276.3773,0,U,31598,999,1368,.32391E-3,.3616E-4,0
TERRASAR-X,2007-026A,2026-02-28T13:47:53.178720,15.19152703,.00018349,97.4460,68.8273,80.2105,279.9336,0,U,31698,999,3673,.67735568E-4,.1356E-4,0
WORLDVIEW-1 (WV-1),2007-041A,2026-03-01T07:12:22.219488,15.24353586,.0002709,97.3821,181.6028,158.2972,201.8380,0,U,32060,999,2644,.39718E-3,.9656E-4,0
YAOGAN-3,2007-055A,2026-03-01T12:25:50.487744,14.90318988,.0001942,97.8291,91.4285,84.6572,275.4867,0,U,32289,999,98982,.49642E-3,.4771E-4,0
COSMO-SKYMED 2,2007-059A,2026-03-01T11:33:43.041024,14.82153041,.0001339,97.8862,245.6368,82.8484,277.2882,0,U,32376,999,98604,.92613E-4,.685E-5,0
RADARSAT-2,2007-061A,2026-03-01T13:30:02.877984,14.29981458,.0001182,98.5815,69.0183,83.7050,276.4267,0,U,32382,999,95057,.11712E-3,.258E-5,0
CARTOSAT-2A,2008-021A,2026-03-01T13:19:58.135872,14.79081571,.0013229,97.7802,112.8709,99.8271,260.4435,0,U,32783,999,96289,.11943E-3,.835E-5,0
HUANJING 1A (HJ-1A),2008-041A,2026-03-01T13:01:02.502912,14.83688425,.0020229,97.6619,50.6047,128.3729,231.9307,0,U,33320,999,94244,.25359E-3,.2051E-4,0
HUANJING 1B (HJ-1B),2008-041B,2026-03-01T12:46:30.382176,14.83077315,.0036394,97.6467,54.0804,174.3353,185.8280,0,U,33321,999,94245,.17892E-3,.1421E-4,0
GEOEYE 1,2008-042A,2026-03-01T10:06:10.170720,14.64754955,.000447,98.1223,135.7150,49.9976,310.1619,0,U,33331,999,93437,.13107E-3,.651E-5,0
THEOS,2008-049A,2026-03-01T12:33:19.046304,14.20114908,.0001058,98.5728,121.2391,86.0477,274.0821,0,U,33396,999,90268,.54032E-4,.73E-6,0
COSMO-SKYMED 3,2008-054A,2026-03-01T13:09:32.994720,15.06154047,.001488,97.8425,277.2939,271.8980,88.0542,0,U,33412,999,94073,.31603E-3,.4571E-4,0
YAOGAN-4,2008-061A,2026-03-01T08:28:40.647936,14.82947234,.0015755,97.9241,354.7226,64.3283,295.9555,0,U,33446,999,92968,.20238E-3,.1592E-4,0
GOSAT (IBUKI),2009-002A,2026-03-01T06:35:07.836864,14.67543304,.0001411,98.0763,172.7846,88.6658,271.4708,0,U,33492,999,91563,.53763E-4,.257E-5,0
DEIMOS-1,2009-041A,2026-03-01T11:20:34.838016,14.75099006,.0001884,97.7237,222.4560,131.5167,228.6205,0,U,35681,999,89100,.13671E-3,.874E-5,0
